start=new Date('2022-05-09T00:00:00.000Z').valueOf();
sats=[{"SITE":"AFETR","COUNTRY_CODE":"US","NORAD_CAT_ID":"46168","CLASSIFICATION_TYPE":"U","MEAN_ELEMENT_THEORY":"SGP4","TLE_LINE2":"2 46168  53.0560  76.4098 0002031  58.6392 301.4796 15.06400034 96243","REV_AT_EPOCH":"9624","ELEMENT_SET_NO":"999","PERIAPSIS":"545.807","OBJECT_NAME":"STARLINK-1627","ECCENTRICITY":"0.00020310","SEMIMAJOR_AXIS":"6925.348","OBJECT_ID":"2020-057BD","REF_FRAME":"TEME","FILE":"3435791","EPOCH":"2022-05-08T14:04:18.311520","APOAPSIS":"548.620","MEAN_MOTION_DDOT":"0.0000000000000","LAUNCH_DATE":"2020-08-18","MEAN_ANOMALY":"301.4796","MEAN_MOTION":"15.06400034","ARG_OF_PERICENTER":"58.6392","EPHEMERIS_TYPE":"0","INCLINATION":"53.0560","GP_ID":"203020045","RCS_SIZE":"LARGE","CENTER_NAME":"EARTH","PERIOD":"95.592","RA_OF_ASC_NODE":"76.4098","MEAN_MOTION_DOT":"0.00001679","OBJECT_TYPE":"PAYLOAD","BSTAR":"0.00013161000000","TLE_LINE1":"1 46168U 20057BD  22128.58632305  .00001679  00000-0  13161-3 0  9994","TIME_SYSTEM":"UTC","DECAY_DATE":null},{"CLASSIFICATION_TYPE":"U","NORAD_CAT_ID":"46169","MEAN_ELEMENT_THEORY":"SGP4","COUNTRY_CODE":"US","SITE":"AFETR","OBJECT_ID":"2020-057BE","SEMIMAJOR_AXIS":"6927.795","REF_FRAME":"TEME","FILE":"3435791","APOAPSIS":"550.826","EPOCH":"2022-05-08T11:29:54.527712","TLE_LINE2":"2 46169  52.9997 126.8824 0001683  55.4066 304.7080 15.05602144 95491","REV_AT_EPOCH":"9549","ELEMENT_SET_NO":"999","PERIAPSIS":"548.494","ECCENTRICITY":"0.00016830","OBJECT_NAME":"STARLINK-1628","ARG_OF_PERICENTER":"55.4066","EPHEMERIS_TYPE":"0","LAUNCH_DATE":"2020-08-18","MEAN_MOTION_DDOT":"0.0000000000000","MEAN_ANOMALY":"304.7080","MEAN_MOTION":"15.05602144","OBJECT_TYPE":"PAYLOAD","BSTAR":"0.00002299900000","TIME_SYSTEM":"UTC","TLE_LINE1":"1 46169U 20057BE  22128.47910333  .00000056  00000-0  22999-4 0  9991","DECAY_DATE":null,"RCS_SIZE":"LARGE","INCLINATION":"52.9997","GP_ID":"203020037","CENTER_NAME":"EARTH","PERIOD":"95.643","MEAN_MOTION_DOT":"0.00000056","RA_OF_ASC_NODE":"126.8824"},{"OBJECT_TYPE":"PAYLOAD","BSTAR":"0.00004399400000","TIME_SYSTEM":"UTC","TLE_LINE1":"1 46171U 20057BG  22128.45919118  .00000374  00000-0  43994-4 0  9993","DECAY_DATE":null,"RCS_SIZE":"LARGE","GP_ID":"203013196","INCLINATION":"53.0547","CENTER_NAME":"EARTH","PERIOD":"95.592","RA_OF_ASC_NODE":"106.9783","MEAN_MOTION_DOT":"0.00000374","ARG_OF_PERICENTER":"50.8969","EPHEMERIS_TYPE":"0","LAUNCH_DATE":"2020-08-18","MEAN_ANOMALY":"309.2186","MEAN_MOTION_DDOT":"0.0000000000000","MEAN_MOTION":"15.06395145","OBJECT_ID":"2020-057BG","SEMIMAJOR_AXIS":"6925.363","REF_FRAME":"TEME","FILE":"3435746","APOAPSIS":"548.530","EPOCH":"2022-05-08T11:01:14.117952","TLE_LINE2":"2 46171  53.0547 106.9783 0001880  50.8969 309.2186 15.06395145 96400","REV_AT_EPOCH":"9640","PERIAPSIS":"545.926","ELEMENT_SET_NO":"999","ECCENTRICITY":"0.00018800","OBJECT_NAME":"STARLINK-1633","NORAD_CAT_ID":"46171","CLASSIFICATION_TYPE":"U","MEAN_ELEMENT_THEORY":"SGP4","COUNTRY_CODE":"US","SITE":"AFETR"},{"LAUNCH_DATE":"2020-08-18","MEAN_MOTION_DDOT":"0.0000000000000","MEAN_ANOMALY":"308.3196","MEAN_MOTION":"15.06393058","ARG_OF_PERICENTER":"51.7981","EPHEMERIS_TYPE":"0","INCLINATION":"53.0530","GP_ID":"203014448","RCS_SIZE":"LARGE","CENTER_NAME":"EARTH","RA_OF_ASC_NODE":"107.2207","PERIOD":"95.593","MEAN_MOTION_DOT":"-0.00000055","BSTAR":"0.00001521500000","OBJECT_TYPE":"PAYLOAD","TLE_LINE1":"1 46172U 20057BH  22128.40758474 -.00000055  00000-0  15215-4 0  9997","TIME_SYSTEM":"UTC","DECAY_DATE":null,"SITE":"AFETR","COUNTRY_CODE":"US","NORAD_CAT_ID":"46172","CLASSIFICATION_TYPE":"U","MEAN_ELEMENT_THEORY":"SGP4","TLE_LINE2":"2 46172  53.0530 107.2207 0002094  51.7981 308.3196 15.06393058 96390","REV_AT_EPOCH":"9639","PERIAPSIS":"545.785","ELEMENT_SET_NO":"999","OBJECT_NAME":"STARLINK-1635","ECCENTRICITY":"0.00020940","SEMIMAJOR_AXIS":"6925.370","OBJECT_ID":"2020-057BH","REF_FRAME":"TEME","FILE":"3435746","APOAPSIS":"548.685","EPOCH":"2022-05-08T09:46:55.321536"},{"OBJECT_TYPE":"PAYLOAD","BSTAR":"0.00002254400000","TIME_SYSTEM":"UTC","TLE_LINE1":"1 46173U 20057BJ  22128.71904448  .00000054  00000-0  22544-4 0  9997","DECAY_DATE":null,"RCS_SIZE":"LARGE","GP_ID":"203020063","INCLINATION":"53.0547","CENTER_NAME":"EARTH","PERIOD":"95.591","MEAN_MOTION_DOT":"0.00000054","RA_OF_ASC_NODE":"125.8296","ARG_OF_PERICENTER":"43.9617","EPHEMERIS_TYPE":"0","LAUNCH_DATE":"2020-08-18","MEAN_ANOMALY":"316.1551","MEAN_MOTION_DDOT":"0.0000000000000","MEAN_MOTION":"15.06412908","OBJECT_ID":"2020-057BJ","SEMIMAJOR_AXIS":"6925.309","REF_FRAME":"TEME","FILE":"3435794","APOAPSIS":"548.736","EPOCH":"2022-05-08T17:15:25.443072","REV_AT_EPOCH":"9556","TLE_LINE2":"2 46173  53.0547 125.8296 0002256  43.9617 316.1551 15.06412908 95568","ELEMENT_SET_NO":"999","PERIAPSIS":"545.612","ECCENTRICITY":"0.00022560","OBJECT_NAME":"STARLINK-1640","CLASSIFICATION_TYPE":"U","NORAD_CAT_ID":"46173","MEAN_ELEMENT_THEORY":"SGP4","COUNTRY_CODE":"US","SITE":"AFETR"},{"LAUNCH_DATE":"2020-08-18","MEAN_ANOMALY":"318.7870","MEAN_MOTION_DDOT":"0.0000000000000","MEAN_MOTION":"15.06399755","ARG_OF_PERICENTER":"41.3290","EPHEMERIS_TYPE":"0","RCS_SIZE":"LARGE","INCLINATION":"53.0545","GP_ID":"203020574","CENTER_NAME":"EARTH","PERIOD":"95.592","MEAN_MOTION_DOT":"-0.00000267","RA_OF_ASC_NODE":"125.7944","OBJECT_TYPE":"PAYLOAD","BSTAR":"0.00000099145000","TIME_SYSTEM":"UTC","TLE_LINE1":"1 46174U 20057BK  22128.72641993 -.00000267  00000-0  99145-6 0  9992","DECAY_DATE":null,"COUNTRY_CODE":"US","SITE":"AFETR","CLASSIFICATION_TYPE":"U","NORAD_CAT_ID":"46174","MEAN_ELEMENT_THEORY":"SGP4","TLE_LINE2":"2 46174  53.0545 125.7944 0002259  41.3290 318.7870 15.06399755 95564","REV_AT_EPOCH":"9556","ELEMENT_SET_NO":"999","PERIAPSIS":"545.650","ECCENTRICITY":"0.00022590","OBJECT_NAME":"STARLINK-1641","OBJECT_ID":"2020-057BK","SEMIMAJOR_AXIS":"6925.349","REF_FRAME":"TEME","FILE":"3435861","EPOCH":"2022-05-08T17:26:02.681952","APOAPSIS":"548.779"},{"CLASSIFICATION_TYPE":"U","NORAD_CAT_ID":"46325","MEAN_ELEMENT_THEORY":"SGP4","COUNTRY_CODE":"US","SITE":"AFETR","REF_FRAME":"TEME","OBJECT_ID":"2020-062A","SEMIMAJOR_AXIS":"6925.356","EPOCH":"2022-05-08T11:20:28.294944","APOAPSIS":"548.649","FILE":"3435746","TLE_LINE2":"2 46325  53.0541 141.9340 0002062  40.7375 319.3767 15.06397522 94355","REV_AT_EPOCH":"9435","ECCENTRICITY":"0.00020620","OBJECT_NAME":"STARLINK-1734","PERIAPSIS":"545.793","ELEMENT_SET_NO":"999","ARG_OF_PERICENTER":"40.7375","EPHEMERIS_TYPE":"0","LAUNCH_DATE":"2020-09-03","MEAN_ANOMALY":"319.3767","MEAN_MOTION_DDOT":"0.0000000000000","MEAN_MOTION":"15.06397522","OBJECT_TYPE":"PAYLOAD","BSTAR":"-0.00001031400000","DECAY_DATE":null,"TIME_SYSTEM":"UTC","TLE_LINE1":"1 46325U 20062A   22128.47254971 -.00000435  00000-0 -10314-4 0  9991","RCS_SIZE":"LARGE","GP_ID":"203013960","INCLINATION":"53.0541","MEAN_MOTION_DOT":"-0.00000435","PERIOD":"95.592","RA_OF_ASC_NODE":"141.9340","CENTER_NAME":"EARTH"},{"MEAN_MOTION_DDOT":"0.0000000000000","LAUNCH_DATE":"2020-09-03","MEAN_ANOMALY":"322.7320","MEAN_MOTION":"15.06417888","ARG_OF_PERICENTER":"37.3808","EPHEMERIS_TYPE":"0","RCS_SIZE":"LARGE","INCLINATION":"53.0546","GP_ID":"203014716","PERIOD":"95.591","RA_OF_ASC_NODE":"186.7443","MEAN_MOTION_DOT":"0.00007190","CENTER_NAME":"EARTH","OBJECT_TYPE":"PAYLOAD","BSTAR":"0.00050085000000","DECAY_DATE":null,"TIME_SYSTEM":"UTC","TLE_LINE1":"1 46326U 20062B   22128.51352088  .00007190  00000-0  50085-3 0  9996","COUNTRY_CODE":"US","SITE":"AFETR","NORAD_CAT_ID":"46326","CLASSIFICATION_TYPE":"U","MEAN_ELEMENT_THEORY":"SGP4","REV_AT_EPOCH":"9312","TLE_LINE2":"2 46326  53.0546 186.7443 0002001  37.3808 322.7320 15.06417888 93123","ECCENTRICITY":"0.00020010","OBJECT_NAME":"STARLINK-1654","ELEMENT_SET_NO":"999","PERIAPSIS":"545.773","REF_FRAME":"TEME","OBJECT_ID":"2020-062B","SEMIMAJOR_AXIS":"6925.294","APOAPSIS":"548.544","EPOCH":"2022-05-08T12:19:28.204032","FILE":"3435746"},{"EPHEMERIS_TYPE":"0","ARG_OF_PERICENTER":"62.8925","MEAN_MOTION":"15.06403615","LAUNCH_DATE":"2020-09-03","MEAN_ANOMALY":"297.2245","MEAN_MOTION_DDOT":"0.0000000000000","DECAY_DATE":null,"TLE_LINE1":"1 46327U 20062C   22128.55870376  .00000001  00000-0  18997-4 0  9997","TIME_SYSTEM":"UTC","OBJECT_TYPE":"PAYLOAD","BSTAR":"0.00001899700000","PERIOD":"95.592","MEAN_MOTION_DOT":"0.00000001","RA_OF_ASC_NODE":"186.5493","CENTER_NAME":"EARTH","INCLINATION":"53.0528","GP_ID":"203020868","RCS_SIZE":"LARGE","MEAN_ELEMENT_THEORY":"SGP4","NORAD_CAT_ID":"46327","CLASSIFICATION_TYPE":"U","SITE":"AFETR","COUNTRY_CODE":"US","APOAPSIS":"548.428","EPOCH":"2022-05-08T13:24:32.004864","FILE":"3435812","REF_FRAME":"TEME","SEMIMAJOR_AXIS":"6925.337","OBJECT_ID":"2020-062C","OBJECT_NAME":"STARLINK-1673","ECCENTRICITY":"0.00017690","PERIAPSIS":"545.977","ELEMENT_SET_NO":"999","TLE_LINE2":"2 46327  53.0528 186.5493 0001769  62.8925 297.2245 15.06403615 93305","REV_AT_EPOCH":"9330"},{"EPHEMERIS_TYPE":"0","ARG_OF_PERICENTER":"43.5912","MEAN_MOTION":"15.06371545","LAUNCH_DATE":"2020-09-03","MEAN_MOTION_DDOT":"0.0000000000000","MEAN_ANOMALY":"316.5268","TIME_SYSTEM":"UTC","TLE_LINE1":"1 46328U 20062D   22128.40574148  .00005812  00000-0  40910-3 0  9994","DECAY_DATE":null,"BSTAR":"0.00040910000000","OBJECT_TYPE":"PAYLOAD","CENTER_NAME":"EARTH","PERIOD":"95.594","RA_OF_ASC_NODE":"167.2322","MEAN_MOTION_DOT":"0.00005812","RCS_SIZE":"LARGE","GP_ID":"203013208","INCLINATION":"53.0546","MEAN_ELEMENT_THEORY":"SGP4","CLASSIFICATION_TYPE":"U","NORAD_CAT_ID":"46328","COUNTRY_CODE":"US","SITE":"AFETR","FILE":"3435746","APOAPSIS":"548.977","EPOCH":"2022-05-08T09:44:16.063872","OBJECT_ID":"2020-062D","SEMIMAJOR_AXIS":"6925.436","REF_FRAME":"TEME","PERIAPSIS":"545.625","ELEMENT_SET_NO":"999","ECCENTRICITY":"0.00024200","OBJECT_NAME":"STARLINK-1686","TLE_LINE2":"2 46328  53.0546 167.2322 0002420  43.5912 316.5268 15.06371545 93384","REV_AT_EPOCH":"9338"}];
